CSS (TIANHE-1)
1 48274U 21035A 22123.07457524 .00027342 00000-0 32203-3 0 9991
2 48274 41.4701 133.2120 0012727 267.8560 132.1695 15.60673508 57728
